OBJECT_NAME,OBJECT_ID,EPOCH,MEAN_MOTION,ECCENTRICITY,INCLINATION,RA_OF_ASC_NODE,ARG_OF_PERICENTER,MEAN_ANOMALY,EPHEMERIS_TYPE,CLASSIFICATION_TYPE,NORAD_CAT_ID,ELEMENT_SET_NO,REV_AT_EPOCH,BSTAR,MEAN_MOTION_DOT,MEAN_MOTION_DDOT
ONEWEB-0638,2023-029G,2026-06-03T11:07:27.797952,13.14502063,.00021073,87.8945,292.4893,82.9123,277.2246,0,U,55802,999,15759,.3208963E-3,.132E-5,0
ONEWEB-0639,2023-029H,2026-06-03T23:47:39.472512,13.19726130,.00008416,87.9159,307.6057,97.0601,263.0627,0,U,55803,999,15716,-.30316804E-4,.1E-7,0
ONEWEB-0640,2023-029J,2026-06-03T07:41:56.395968,13.14501972,.00017301,87.8944,292.5080,76.5250,283.6073,0,U,55804,999,15759,-.10504771E-3,-.26E-6,0
ONEWEB-0641,2023-029K,2026-06-03T23:40:48.946368,13.19727257,.00016622,87.9164,307.5948,97.1277,263.0044,0,U,55805,999,15717,.16518613E-3,.79E-6,0
ONEWEB-0642,2023-029L,2026-06-03T10:49:46.071552,13.19726290,.00010568,87.9159,307.7147,108.7042,251.4206,0,U,55806,999,15709,.89005165E-4,.49E-6,0
ONEWEB-0643,2023-029M,2026-06-02T20:00:54.649440,13.14502204,.00014124,87.8943,292.5928,117.2593,242.8681,0,U,55807,999,15750,.72421281E-3,.281E-5,0
ONEWEB-0644,2023-029N,2026-06-03T23:27:09.577152,13.19724755,.00014712,87.9156,307.6115,101.5694,258.5604,0,U,55808,999,15716,-.32737981E-3,-.118E-5,0
ONEWEB-0645,2023-029P,2026-06-02T18:52:11.322624,13.19726988,.00014387,87.9156,307.8460,83.9278,276.2019,0,U,55809,999,15700,-.16740768E-4,.6E-7,0
ONEWEB-0646,2023-029Q,2026-06-02T19:17:14.038944,13.19725132,.00016884,87.9154,307.8422,106.1464,253.9854,0,U,55810,999,15699,-.17582837E-3,-.57E-6,0
ONEWEB-0648,2023-029R,2026-06-03T08:02:28.834080,13.14505059,.00009659,87.8954,292.4645,86.1560,273.9680,0,U,55811,999,15757,-.3608201E-3,-.121E-5,0
ONEWEB-0649,2023-029S,2026-06-03T23:11:14.982432,13.19726992,.00015535,87.9158,307.6084,91.8872,268.2438,0,U,55812,999,15718,-.37830701E-4,-.2E-7,0
ONEWEB-0650,2023-029T,2026-06-03T23:04:25.935456,13.19726946,.0001382,87.9158,307.6119,100.5233,259.6056,0,U,55813,999,15715,.14419762E-4,.19E-6,0
ONEWEB-0652,2023-029U,2026-06-03T07:35:05.321184,13.14503783,.00019615,87.8958,292.4759,102.6238,257.5111,0,U,55814,999,15754,.19490384E-3,.85E-6,0
ONEWEB-0653,2023-029V,2026-06-03T10:51:28.389888,13.14502554,.00019136,87.8954,292.4468,95.2522,264.8826,0,U,55815,999,15759,.62992251E-3,.246E-5,0
ONEWEB-0654,2023-029W,2026-06-02T20:07:45.247296,13.14503227,.00022003,87.8949,292.5660,96.3701,263.7679,0,U,55816,999,15753,.70914586E-3,.276E-5,0
ONEWEB-0656,2023-029X,2026-06-03T08:10:55.994304,13.20772424,.00022591,87.9215,277.1926,94.2965,265.8426,0,U,55817,999,15932,-.64397312E-4,-.13E-6,0
ONEWEB-0657,2023-029Y,2026-06-02T19:39:58.327776,13.19726362,.00023329,87.9159,307.8384,110.6459,249.4924,0,U,55818,999,15701,-.969077E-4,-.26E-6,0
ONEWEB-0658,2023-029Z,2026-06-03T11:55:43.699584,13.19726967,.0001418,87.9168,307.6776,100.8472,259.2820,0,U,55819,999,15711,-.35805E-4,-.1E-7,0
ONEWEB-0660,2023-029AA,2026-06-02T19:35:46.706784,13.14502633,.00016571,87.8961,292.5615,89.4634,270.6686,0,U,55820,999,15751,.46243125E-4,.3E-6,0
ONEWEB-0661,2023-029AB,2026-06-03T11:02:53.902176,13.14501994,.00015404,87.8943,292.4801,87.3980,272.7326,0,U,55821,999,15758,.55432756E-3,.218E-5,0
ONEWEB-0662,2023-029AC,2026-06-02T19:26:38.334624,13.14501936,.00016436,87.8940,292.6168,89.9631,270.1687,0,U,55822,999,15754,-.28501247E-3,-.93E-6,0
ONEWEB-0663,2023-029AD,2026-06-03T07:11:49.594848,13.20868072,.00014777,87.9195,277.2688,96.5868,263.5434,0,U,55823,999,15931,.12134386E-3,.62E-6,0
ONEWEB-0664,2023-029AE,2026-06-03T07:51:30.460032,13.20771371,.00020512,87.9177,277.2455,89.2634,270.8734,0,U,55824,999,15931,.20141902E-3,.95E-6,0
ONEWEB-0665,2023-029AF,2026-06-03T10:58:20.179200,13.14502093,.00016018,87.8945,292.4623,91.6396,268.4917,0,U,55825,999,15760,.46255056E-3,.184E-5,0
ONEWEB-0666,2023-029AG,2026-06-03T07:41:48.987168,13.20769624,.00024584,87.9183,277.2362,117.9769,242.1614,0,U,55826,999,15932,.24622476E-4,.23E-6,0
ONEWEB-0667,2023-029AH,2026-06-03T07:34:33.907872,13.20771493,.00018227,87.9191,277.1949,99.1302,261.0038,0,U,55827,999,15931,.18234756E-4,.2E-6,0
ONEWEB-0669,2023-029AJ,2026-06-03T07:27:16.965792,13.20770840,.00023835,87.9195,277.2059,94.2481,265.8925,0,U,55828,999,15931,.84648974E-4,.47E-6,0
ONEWEB-0670,2023-029AK,2026-06-03T10:26:21.954048,13.14492551,.0002187,87.8988,292.4816,96.4969,263.6410,0,U,55829,999,15762,.35180427E-2,.1317E-4,0
ONEWEB-0671,2023-029AL,2026-06-03T11:48:52.846848,13.19727806,.0001664,87.9144,307.7055,95.0299,265.1023,0,U,55830,999,15709,.55641E-3,.236E-5,0
ONEWEB-0672,2023-029AM,2026-06-03T07:20:00.283776,13.20770462,.00021497,87.9202,277.1999,108.0971,252.0397,0,U,55831,999,15931,.21406518E-3,.1E-5,0
