ONEWEB-0638             
1 55802U 23029G   26154.46351618  .00000132  00000+0  32090-3 0  9990
2 55802  87.8945 292.4893 0002107  82.9123 277.2246 13.14502063157597
ONEWEB-0639             
1 55803U 23029H   26154.99142908  .00000001  00000+0 -30317-4 0  9996
2 55803  87.9159 307.6057 0000841  97.0601 263.0627 13.19726130157165
ONEWEB-0640             
1 55804U 23029J   26154.32079162 -.00000026  00000+0 -10505-3 0  9999
2 55804  87.8944 292.5080 0001730  76.5250 283.6073 13.14501972157595
ONEWEB-0641             
1 55805U 23029K   26154.98667762  .00000079  00000+0  16519-3 0  9998
2 55805  87.9164 307.5948 0001662  97.1277 263.0044 13.19727257157178
ONEWEB-0642             
1 55806U 23029L   26154.45122768  .00000049  00000+0  89005-4 0  9991
2 55806  87.9159 307.7147 0001056 108.7042 251.4206 13.19726290157090
ONEWEB-0643             
1 55807U 23029M   26153.83396585  .00000281  00000+0  72421-3 0  9994
2 55807  87.8943 292.5928 0001412 117.2593 242.8681 13.14502204157500
ONEWEB-0644             
1 55808U 23029N   26154.97719418 -.00000118  00000+0 -32738-3 0  9993
2 55808  87.9156 307.6115 0001471 101.5694 258.5604 13.19724755157160
ONEWEB-0645             
1 55809U 23029P   26153.78624216  .00000006  00000+0 -16741-4 0  9995
2 55809  87.9156 307.8460 0001438  83.9278 276.2019 13.19726988157000
ONEWEB-0646             
1 55810U 23029Q   26153.80363471 -.00000057  00000+0 -17583-3 0  9994
2 55810  87.9154 307.8422 0001688 106.1464 253.9854 13.19725132156996
ONEWEB-0648             
1 55811U 23029R   26154.33505595 -.00000121  00000+0 -36082-3 0  9996
2 55811  87.8954 292.4645 0000965  86.1560 273.9680 13.14505059157574
ONEWEB-0649             
1 55812U 23029S   26154.96614563 -.00000002  00000+0 -37831-4 0  9994
2 55812  87.9158 307.6084 0001553  91.8872 268.2438 13.19726992157182
ONEWEB-0650             
1 55813U 23029T   26154.96141129  .00000019  00000+0  14420-4 0  9993
2 55813  87.9158 307.6119 0001382 100.5233 259.6056 13.19726946157157
ONEWEB-0652             
1 55814U 23029U   26154.31603381  .00000085  00000+0  19490-3 0  9990
2 55814  87.8958 292.4759 0001961 102.6238 257.5111 13.14503783157546
ONEWEB-0653             
1 55815U 23029V   26154.45241192  .00000246  00000+0  62992-3 0  9998
2 55815  87.8954 292.4468 0001913  95.2522 264.8826 13.14502554157594
ONEWEB-0654             
1 55816U 23029W   26153.83871814  .00000276  00000+0  70915-3 0  9997
2 55816  87.8949 292.5660 0002200  96.3701 263.7679 13.14503227157531
ONEWEB-0656             
1 55817U 23029X   26154.34092586 -.00000013  00000+0 -64397-4 0  9995
2 55817  87.9215 277.1926 0002259  94.2965 265.8426 13.20772424159322
ONEWEB-0657             
1 55818U 23029Y   26153.81942509 -.00000026  00000+0 -96908-4 0  9993
2 55818  87.9159 307.8384 0002332 110.6459 249.4924 13.19726362157015
ONEWEB-0658             
1 55819U 23029Z   26154.49703356 -.00000001  00000+0 -35805-4 0  9996
2 55819  87.9168 307.6776 0001418 100.8472 259.2820 13.19726967157115
ONEWEB-0660             
1 55820U 23029AA  26153.81651281  .00000030  00000+0  46243-4 0  9990
2 55820  87.8961 292.5615 0001657  89.4634 270.6686 13.14502633157516
ONEWEB-0661             
1 55821U 23029AB  26154.46034609  .00000218  00000+0  55433-3 0  9990
2 55821  87.8943 292.4801 0001540  87.3980 272.7326 13.14501994157585
ONEWEB-0662             
1 55822U 23029AC  26153.81016591 -.00000093  00000+0 -28501-3 0  9998
2 55822  87.8940 292.6168 0001643  89.9631 270.1687 13.14501936157540
ONEWEB-0663             
1 55823U 23029AD  26154.29987957  .00000062  00000+0  12134-3 0  9994
2 55823  87.9195 277.2688 0001477  96.5868 263.5434 13.20868072159318
ONEWEB-0664             
1 55824U 23029AE  26154.32743588  .00000095  00000+0  20142-3 0  9993
2 55824  87.9177 277.2455 0002051  89.2634 270.8734 13.20771371159319
ONEWEB-0665             
1 55825U 23029AF  26154.45717800  .00000184  00000+0  46255-3 0  9998
2 55825  87.8945 292.4623 0001601  91.6396 268.4917 13.14502093157602
ONEWEB-0666             
1 55826U 23029AG  26154.32070587  .00000023  00000+0  24622-4 0  9996
2 55826  87.9183 277.2362 0002458 117.9769 242.1614 13.20769624159322
ONEWEB-0667             
1 55827U 23029AH  26154.31567023  .00000020  00000+0  18235-4 0  9992
2 55827  87.9191 277.1949 0001822  99.1302 261.0038 13.20771493159316
ONEWEB-0669             
1 55828U 23029AJ  26154.31061303  .00000047  00000+0  84649-4 0  9994
2 55828  87.9195 277.2059 0002383  94.2481 265.8925 13.20770840159313
ONEWEB-0670             
1 55829U 23029AK  26154.43497632  .00001317  00000+0  35180-2 0  9991
2 55829  87.8988 292.4816 0002187  96.4969 263.6410 13.14492551157620
ONEWEB-0671             
1 55830U 23029AL  26154.49227832  .00000236  00000+0  55641-3 0  9996
2 55830  87.9144 307.7055 0001664  95.0299 265.1023 13.19727806157099
ONEWEB-0672             
1 55831U 23029AM  26154.30555884  .00000100  00000+0  21407-3 0  9991
2 55831  87.9202 277.1999 0002149 108.0971 252.0397 13.20770462159317
